LEMUR-2-STARLIGHT       
1 66783U 25276DY  26191.13038764  .00004687  00000+0  38743-3 0  9995
2 66783  97.5230 260.9845 0014771  62.0755 298.1962 14.99316422 33630
LEMUR-2-TARTIFLETTE     
1 66784U 25276DZ  26191.99635084  .00003421  00000+0  28423-3 0  9997
2 66784  97.5235 261.8286 0013856  67.5753 292.6937 14.99308795 33765
LEMUR-2-VUKASIN         
1 66785U 25276EA  26191.43660917  .00003477  00000+0  28036-3 0  9991
2 66785  97.5242 261.6384 0003790  68.8123 291.3506 15.00520064 33634
LEMUR-2-HOTSPUR-TOM     
1 66786U 25276EB  26191.59002265  .00003572  00000+0  29732-3 0  9995
2 66786  97.5222 261.4122 0013855  59.8577 300.4018 14.99212666 33630
LEMUR-2-MYRA            
1 66787U 25276EC  26192.00210503  .00003666  00000+0  29407-3 0  9992
2 66787  97.5220 262.1056 0018558  66.9551 293.3628 15.00558625 33783
LEMUR-2 FIKRETDENGIZ    
1 67363U 26004A   26190.72270687  .00002433  00000+0  26761-3 0  9990
2 67363  97.8024 188.9369 0010439  71.1066 289.1282 14.88491309 26635
TWILIGHT-1 OBJECT B     
1 67364U 26004B   26191.22800616  .00001206  00000+0  13801-3 0  9996
2 67364  97.8071 189.4384 0010013  60.0405 300.1805 14.87783017 26716
LEMUR-2-MARIO-SOUSA     
1 67365U 26004C   26191.30826014  .00002461  00000+0  26918-3 0  9993
2 67365  97.7996 189.5087 0010049  70.7060 289.5243 14.88703210 26733
LEMUR-2-SONNENBLUME     
1 67367U 26004E   26191.78081080  .00001403  00000+0  15704-3 0  9999
2 67367  97.7993 189.9489 0009593  70.6400 289.5853 14.88439699 26803
LEMUR-2-WOBLER          
1 67368U 26004F   26191.43474156  .00002177  00000+0  23899-3 0  9995
2 67368  97.8048 189.7542 0009758  63.1252 297.0961 14.88678189 26756
LEMUR-2-GRAM-E-SUE      
1 67370U 26004H   26190.41824335  .00001831  00000+0  20248-3 0  9994
2 67370  97.7979 188.6239 0008810  76.6994 283.5205 14.88573884 26603
LEMUR-2-KATIE           
1 67387U 26004AA  26191.79166362  .00002912  00000+0  30597-3 0  9992
2 67387  97.8039 190.5127 0003794  43.5820 316.5697 14.90225924 26822
LEMUR-2-HCS-BAZUS       
1 67388U 26004AB  26191.99149818  .00001457  00000+0  15592-3 0  9993
2 67388  97.8030 190.6891 0003290  43.2286 316.9189 14.90246795 26859
